{
    "CCSDS_OMM_VERS": "3.0",
    "COMMENT": "GENERATED VIA SPACE-TRACK.ORG API",
    "CREATION_DATE": "2025-05-22T22:56:18",
    "ORIGINATOR": "18 SPCS",
    "OBJECT_NAME": "BEIDOU IGSO-7",
    "OBJECT_ID": "2018-057A",
    "CENTER_NAME": "EARTH",
    "REF_FRAME": "TEME",
    "TIME_SYSTEM": "UTC",
    "MEAN_ELEMENT_THEORY": "SGP4",
    "EPOCH": "2025-05-22T15:46:19.545888",
    "MEAN_MOTION": "1.00264305",
    "ECCENTRICITY": "0.00893350",
    "INCLINATION": "55.1619",
    "RA_OF_ASC_NODE": "166.4407",
    "ARG_OF_PERICENTER": "236.4033",
    "MEAN_ANOMALY": "187.1643",
    "EPHEMERIS_TYPE": "0",
    "CLASSIFICATION_TYPE": "U",
    "NORAD_CAT_ID": "43539",
    "ELEMENT_SET_NO": "999",
    "REV_AT_EPOCH": "2520",
    "BSTAR": "0.00000000000000",
    "MEAN_MOTION_DOT": "-0.00000046",
    "MEAN_MOTION_DDOT": "0.0000000000000",
    "SEMIMAJOR_AXIS": "42166.829",
    "PERIOD": "1436.204",
    "APOAPSIS": "36165.391",
    "PERIAPSIS": "35411.997",
    "OBJECT_TYPE": "PAYLOAD",
    "RCS_SIZE": "LARGE",
    "COUNTRY_CODE": "PRC",
    "LAUNCH_DATE": "2018-07-09",
    "SITE": "XSC",
    "DECAY_DATE": null,
    "FILE": "4736473",
    "GP_ID": "288163808",
    "TLE_LINE0": "0 BEIDOU IGSO-7",
    "TLE_LINE1": "1 43539U 18057A   25142.65717067 -.00000046  00000-0  00000+0 0  9998",
    "TLE_LINE2": "2 43539  55.1619 166.4407 0089335 236.4033 187.1643  1.00264305 25200"
}